[
    {
        "Altitude(m)": 604221.226034804,
        "Argument of Periapsis(deg)": 0.0,
        "Eccentricity": 0.0,
        "Inclination(deg)": 60.0,
        "Latitude(deg)": 14.11736964500629,
        "Longitude(deg)": 63.33413439160387,
        "Mean Anomaly(deg)": 16.363600000000012,
        "RAAN(deg)": 155.0,
        "Satellite Name": "Test1 683",
        "Satellite Number": 683,
        "Semi-Major Axis(m)": 6980739.136638005,
        "Time(s)": 0
    },
    {
        "Altitude(m)": 604235.367769269,
        "Argument of Periapsis(deg)": 0.00010418945913296404,
        "Eccentricity": 0.0,
        "Inclination(deg)": 60.0,
        "Latitude(deg)": 14.651766793459762,
        "Longitude(deg)": 63.622580730014384,
        "Mean Anomaly(deg)": 16.983706145461838,
        "RAAN(deg)": 154.99957995086027,
        "Satellite Name": "Test1 683",
        "Satellite Number": 683,
        "Semi-Major Axis(m)": 6980739.136638005,
        "Time(s)": 10
    }
]